{
  "type": "FeatureCollection",
  "coordinate_reference": "PDF_Punkte_Originalblatt_5227x3727_Ursprung_links_oben",
  "features": [
    {
      "type": "Feature",
      "id": "F01",
      "properties": {
        "name": "Möbel Nebengebäude links",
        "quelle": "Nutzerkorrektur und Originalplan",
        "ground_truth": false
      },
      "geometry": {
        "type": "Polygon",
        "coordinates": [
          [
            [
              243.0,
              3376.5
            ],
            [
              280.0,
              3343.5
            ],
            [
              307.0,
              3373.0
            ],
            [
              269.0,
              3407.0
            ],
            [
              243.0,
              3376.5
            ]
          ]
        ]
      }
    },
    {
      "type": "Feature",
      "id": "F02",
      "properties": {
        "name": "Möbel Nebengebäude Mitte",
        "quelle": "Nutzerkorrektur und Originalplan",
        "ground_truth": false
      },
      "geometry": {
        "type": "Polygon",
        "coordinates": [
          [
            [
              395.0,
              3390.0
            ],
            [
              425.0,
              3363.0
            ],
            [
              459.0,
              3401.0
            ],
            [
              429.0,
              3426.5
            ],
            [
              395.0,
              3390.0
            ]
          ]
        ]
      }
    },
    {
      "type": "Feature",
      "id": "F03",
      "properties": {
        "name": "Möbel Nebengebäude rechts",
        "quelle": "Nutzerkorrektur und Originalplan",
        "ground_truth": false
      },
      "geometry": {
        "type": "Polygon",
        "coordinates": [
          [
            [
              481.0,
              3355.0
            ],
            [
              510.5,
              3328.5
            ],
            [
              544.5,
              3366.0
            ],
            [
              515.0,
              3392.5
            ],
            [
              481.0,
              3355.0
            ]
          ]
        ]
      }
    },
    {
      "type": "Feature",
      "id": "F04",
      "properties": {
        "name": "Sessel Büro Freizeit",
        "quelle": "Nutzerkorrektur und Originalplan",
        "ground_truth": false
      },
      "geometry": {
        "type": "Polygon",
        "coordinates": [
          [
            [
              1791.4687873944674,
              1307.8969583978926
            ],
            [
              1764.939729768387,
              1309.4480507231006
            ],
            [
              1764.742343096648,
              1309.4985751790891
            ],
            [
              1764.5736383270632,
              1309.6253901027537
            ],
            [
              1764.46734781891,
              1309.8077240053096
            ],
            [
              1757.9696071952033,
              1338.06606836794
            ],
            [
              1757.673317697776,
              1339.4183379114347
            ],
            [
              1757.4651180239948,
              1340.792571488413
            ],
            [
              1757.3469236898072,
              1342.1847283701302
            ],
            [
              1757.3206502111602,
              1343.590767827842
            ],
            [
              1757.388213104,
              1345.006649132804
            ],
            [
              1757.5496919412797,
              1346.414913738388
            ],
            [
              1757.8021948748074,
              1347.7983440838996
            ],
            [
              1758.1431802888146,
              1349.1532609194956
            ],
            [
              1758.5701065675323,
              1350.4759849953318
            ],
            [
              1759.080432095191,
              1351.762837061565
            ],
            [
              1770.5545562166378,
              1379.5898023403115
            ],
            [
              1770.63251842951,
              1379.7780471606889
            ],
            [
              1770.7819416942525,
              1379.927097529071
            ],
            [
              1770.9774878173635,
              1380.0065017990908
            ],
            [
              1771.181231222651,
              1380.0048154311396
            ],
            [
              1797.223433657646,
              1374.713267620359
            ],
            [
              1797.4116784784185,
              1374.635305407956
            ],
            [
              1797.560728847365,
              1374.4858821435048
            ],
            [
              1797.6401331180184,
              1374.2903360204436
            ],
            [
              1799.809337474857,
              1344.3915128101082
            ],
            [
              1799.835610953709,
              1342.9854733524003
            ],
            [
              1799.7680480610752,
              1341.5695920474284
            ],
            [
              1799.6065692240006,
              1340.1613274418207
            ],
            [
              1799.354066290674,
              1338.7778970962725
            ],
            [
              1792.0303903942747,
              1308.3965177034781
            ],
            [
              1791.979865938167,
              1308.1991310311712
            ],
            [
              1791.853051014163,
              1308.0304262610905
            ],
            [
              1791.6707171111013,
              1307.9241357526123
            ],
            [
              1791.4687873944674,
              1307.8969583978926
            ]
          ]
        ]
      }
    },
    {
      "type": "Feature",
      "id": "F05",
      "properties": {
        "name": "Waschbecken WC b",
        "quelle": "Nutzerkorrektur und Originalplan",
        "ground_truth": false
      },
      "geometry": {
        "type": "Polygon",
        "coordinates": [
          [
            [
              210.0,
              3549.0
            ],
            [
              232.0,
              3541.0
            ],
            [
              241.0,
              3568.0
            ],
            [
              219.0,
              3576.0
            ],
            [
              210.0,
              3549.0
            ]
          ]
        ]
      }
    },
    {
      "type": "Feature",
      "id": "F06",
      "properties": {
        "name": "Waschbecken WC H",
        "quelle": "Nutzerkorrektur und Originalplan",
        "ground_truth": false
      },
      "geometry": {
        "type": "Polygon",
        "coordinates": [
          [
            [
              458.0,
              3437.0
            ],
            [
              490.0,
              3426.0
            ],
            [
              500.0,
              3457.0
            ],
            [
              469.0,
              3467.0
            ],
            [
              458.0,
              3437.0
            ]
          ]
        ]
      }
    },
    {
      "type": "Feature",
      "id": "F07",
      "properties": {
        "name": "Waschbecken WC D",
        "quelle": "Nutzerkorrektur und Originalplan",
        "ground_truth": false
      },
      "geometry": {
        "type": "Polygon",
        "coordinates": [
          [
            [
              585.0,
              3392.0
            ],
            [
              624.0,
              3378.0
            ],
            [
              632.0,
              3410.0
            ],
            [
              597.0,
              3422.0
            ],
            [
              585.0,
              3392.0
            ]
          ]
        ]
      }
    }
  ]
}
